{
  "type": "FeatureCollection",
  "features": [
    {
      "type": "Feature",
      "properties": {
        "norad_id": 35025,
        "name": "COSMOS 2251 DEB",
        "group": "cosmos-2251-debris",
        "lat": 49.538782495538435,
        "lon": -148.87662040334362,
        "alt_km": 705.5236573923803,
        "timestamp": "2025-12-18T21:31:51.400885+00:00",
        "meta_object_name": "COSMOS 2251 DEB",
        "meta_object_id": "1993-036AGN",
        "meta_epoch": "2025-12-17T20:29:52.390176",
        "meta_mean_motion": 14.72733533,
        "meta_eccentricity": 0.00854068,
        "meta_inclination": 73.9386,
        "meta_ra_of_asc_node": 52.9077,
        "meta_arg_of_pericenter": 324.634,
        "meta_mean_anomaly": 34.9183,
        "meta_ephemeris_type": 0,
        "meta_classification_type": "U",
        "meta_norad_cat_id": 35025,
        "meta_element_set_no": 999,
        "meta_rev_at_epoch": 88718,
        "meta_bstar": 0.00030146964,
        "meta_mean_motion_dot": 2.002e-05,
        "meta_mean_motion_ddot": 0,
        "tle_line1": "1 35025U 93036AGN 25351.85407859  .00002002  00000+0  30147-3 0  9999",
        "tle_line2": "2 35025  73.9386  52.9077 0085406 324.6340  34.9183 14.72733533887186"
      },
      "geometry": {
        "type": "Point",
        "coordinates": [
          -148.87662040334362,
          49.538782495538435
        ]
      }
    },
    {
      "type": "Feature",
      "properties": {
        "norad_id": 35026,
        "name": "COSMOS 2251 DEB",
        "group": "cosmos-2251-debris",
        "lat": -61.76976592291388,
        "lon": -85.01629063495488,
        "alt_km": 754.0831710704015,
        "timestamp": "2025-12-18T21:31:51.400895+00:00",
        "meta_object_name": "COSMOS 2251 DEB",
        "meta_object_id": "1993-036AGP",
        "meta_epoch": "2025-12-18T03:45:00.139104",
        "meta_mean_motion": 14.53626797,
        "meta_eccentricity": 0.0082422,
        "meta_inclination": 74.047,
        "meta_ra_of_asc_node": 308.5764,
        "meta_arg_of_pericenter": 60.5026,
        "meta_mean_anomaly": 318.4835,
        "meta_ephemeris_type": 0,
        "meta_classification_type": "U",
        "meta_norad_cat_id": 35026,
        "meta_element_set_no": 999,
        "meta_rev_at_epoch": 88222,
        "meta_bstar": 6.097601e-05,
        "meta_mean_motion_dot": 2.37e-06,
        "meta_mean_motion_ddot": 0,
        "tle_line1": "1 35026U 93036AGP 25352.15625161  .00000237  00000+0  60976-4 0  9994",
        "tle_line2": "2 35026  74.0470 308.5764 0082422  60.5026 318.4835 14.53626797882224"
      },
      "geometry": {
        "type": "Point",
        "coordinates": [
          -85.01629063495488,
          -61.76976592291388
        ]
      }
    },
    {
      "type": "Feature",
      "properties": {
        "norad_id": 35028,
        "name": "COSMOS 2251 DEB",
        "group": "cosmos-2251-debris",
        "lat": 62.03292179804991,
        "lon": 46.67878872638071,
        "alt_km": 689.1500015579568,
        "timestamp": "2025-12-18T21:31:51.400905+00:00",
        "meta_object_name": "COSMOS 2251 DEB",
        "meta_object_id": "1993-036AGR",
        "meta_epoch": "2025-12-18T03:11:52.081152",
        "meta_mean_motion": 14.56575396,
        "meta_eccentricity": 0.00826724,
        "meta_inclination": 74.0383,
        "meta_ra_of_asc_node": 260.7455,
        "meta_arg_of_pericenter": 32.9493,
        "meta_mean_anomaly": 35.4382,
        "meta_ephemeris_type": 0,
        "meta_classification_type": "U",
        "meta_norad_cat_id": 35028,
        "meta_element_set_no": 999,
        "meta_rev_at_epoch": 88364,
        "meta_bstar": 8.3392474e-05,
        "meta_mean_motion_dot": 3.58e-06,
        "meta_mean_motion_ddot": 0,
        "tle_line1": "1 35028U 93036AGR 25352.13324168  .00000358  00000+0  83392-4 0  9998",
        "tle_line2": "2 35028  74.0383 260.7455 0082672  32.9493  35.4382 14.56575396883644"
      },
      "geometry": {
        "type": "Point",
        "coordinates": [
          46.67878872638071,
          62.03292179804991
        ]
      }
    },
    {
      "type": "Feature",
      "properties": {
        "norad_id": 35031,
        "name": "COSMOS 2251 DEB",
        "group": "cosmos-2251-debris",
        "lat": -20.388361468133198,
        "lon": -118.18665655744071,
        "alt_km": 755.3442114226264,
        "timestamp": "2025-12-18T21:31:51.400915+00:00",
        "meta_object_name": "COSMOS 2251 DEB",
        "meta_object_id": "1993-036AGU",
        "meta_epoch": "2025-12-17T23:55:41.225088",
        "meta_mean_motion": 14.38299529,
        "meta_eccentricity": 0.00190755,
        "meta_inclination": 74.0382,
        "meta_ra_of_asc_node": 249.5774,
        "meta_arg_of_pericenter": 342.0186,
        "meta_mean_anomaly": 18.0291,
        "meta_ephemeris_type": 0,
        "meta_classification_type": "U",
        "meta_norad_cat_id": 35031,
        "meta_element_set_no": 999,
        "meta_rev_at_epoch": 65359,
        "meta_bstar": 0.00013785455,
        "meta_mean_motion_dot": 3.94e-06,
        "meta_mean_motion_ddot": 0,
        "tle_line1": "1 35031U 93036AGU 25351.99700492  .00000394  00000+0  13785-3 0  9991",
        "tle_line2": "2 35031  74.0382 249.5774 0019075 342.0186  18.0291 14.38299529653593"
      },
      "geometry": {
        "type": "Point",
        "coordinates": [
          -118.18665655744071,
          -20.388361468133198
        ]
      }
    },
    {
      "type": "Feature",
      "properties": {
        "norad_id": 35032,
        "name": "COSMOS 2251 DEB",
        "group": "cosmos-2251-debris",
        "lat": -57.881189965990735,
        "lon": -32.06897916722395,
        "alt_km": 705.6604798777835,
        "timestamp": "2025-12-18T21:31:51.400925+00:00",
        "meta_object_name": "COSMOS 2251 DEB",
        "meta_object_id": "1993-036AGV",
        "meta_epoch": "2025-12-18T00:33:49.426272",
        "meta_mean_motion": 14.58767077,
        "meta_eccentricity": 0.00680281,
        "meta_inclination": 73.8514,
        "meta_ra_of_asc_node": 357.1006,
        "meta_arg_of_pericenter": 207.546,
        "meta_mean_anomaly": 183.784,
        "meta_ephemeris_type": 0,
        "meta_classification_type": "U",
        "meta_norad_cat_id": 35032,
        "meta_element_set_no": 999,
        "meta_rev_at_epoch": 87751,
        "meta_bstar": 0.00066442143,
        "meta_mean_motion_dot": 3.174e-05,
        "meta_mean_motion_ddot": 0,
        "tle_line1": "1 35032U 93036AGV 25352.02348873  .00003174  00000+0  66442-3 0  9995",
        "tle_line2": "2 35032  73.8514 357.1006 0068028 207.5460 183.7840 14.58767077877514"
      },
      "geometry": {
        "type": "Point",
        "coordinates": [
          -32.06897916722395,
          -57.881189965990735
        ]
      }
    },
    {
      "type": "Feature",
      "properties": {
        "norad_id": 35033,
        "name": "COSMOS 2251 DEB",
        "group": "cosmos-2251-debris",
        "lat": 30.703646165259983,
        "lon": -24.803561723401703,
        "alt_km": 726.1538621310801,
        "timestamp": "2025-12-18T21:31:51.400935+00:00",
        "meta_object_name": "COSMOS 2251 DEB",
        "meta_object_id": "1993-036AGW",
        "meta_epoch": "2025-12-17T18:22:28.174368",
        "meta_mean_motion": 14.50953363,
        "meta_eccentricity": 0.00144706,
        "meta_inclination": 74.025,
        "meta_ra_of_asc_node": 167.1194,
        "meta_arg_of_pericenter": 273.5227,
        "meta_mean_anomaly": 86.4279,
        "meta_ephemeris_type": 0,
        "meta_classification_type": "U",
        "meta_norad_cat_id": 35033,
        "meta_element_set_no": 999,
        "meta_rev_at_epoch": 66000,
        "meta_bstar": 0.00050181876,
        "meta_mean_motion_dot": 1.958e-05,
        "meta_mean_motion_ddot": 0,
        "tle_line1": "1 35033U 93036AGW 25351.76560387  .00001958  00000+0  50182-3 0  9994",
        "tle_line2": "2 35033  74.0250 167.1194 0014470 273.5227  86.4279 14.50953363660004"
      },
      "geometry": {
        "type": "Point",
        "coordinates": [
          -24.803561723401703,
          30.703646165259983
        ]
      }
    },
    {
      "type": "Feature",
      "properties": {
        "norad_id": 35038,
        "name": "COSMOS 2251 DEB",
        "group": "cosmos-2251-debris",
        "lat": -72.09465128316667,
        "lon": -86.61729695559218,
        "alt_km": 844.7708734362595,
        "timestamp": "2025-12-18T21:31:51.400945+00:00",
        "meta_object_name": "COSMOS 2251 DEB",
        "meta_object_id": "1993-036AHB",
        "meta_epoch": "2025-12-16T02:43:57.942048",
        "meta_mean_motion": 14.25166694,
        "meta_eccentricity": 0.01140711,
        "meta_inclination": 74.1077,
        "meta_ra_of_asc_node": 36.5236,
        "meta_arg_of_pericenter": 19.3791,
        "meta_mean_anomaly": 9.3469,
        "meta_ephemeris_type": 0,
        "meta_classification_type": "U",
        "meta_norad_cat_id": 35038,
        "meta_element_set_no": 999,
        "meta_rev_at_epoch": 85617,
        "meta_bstar": 0.00096319549,
        "meta_mean_motion_dot": 2.397e-05,
        "meta_mean_motion_ddot": 0,
        "tle_line1": "1 35038U 93036AHB 25350.11386507  .00002397  00000+0  96320-3 0  9999",
        "tle_line2": "2 35038  74.1077  36.5236 0114071  19.3791   9.3469 14.25166694856178"
      },
      "geometry": {
        "type": "Point",
        "coordinates": [
          -86.61729695559218,
          -72.09465128316667
        ]
      }
    }
  ]
}